{"type":"FeatureCollection","name":"maxuse_kantah_display_points_v14_1","features":[{"type":"Feature","id":"PT_ACEH_BARAT","properties":{"point_id":"PT_ACEH_BARAT","kantah_id":"KANTAH_ACEH_BARAT","kab_id":"aceh_barat","nama":"Kantah Aceh Barat","jenis":"KANTAH","status":"BELUM_TARGET","real_lon":null,"real_lat":null,"disp_lon":96.18629,"disp_lat":4.42851,"url":"","tower_on":0,"coord_status":"AUTO_DISPLAY_FROM_POLYGON_BBOX - isi real_lon/real_lat kantor asli belakangan jika sudah tersedia"},"geometry":{"type":"Point","coordinates":[96.18629,4.42851]}},{"type":"Feature","id":"PT_ACEH_BARAT_DAYA","properties":{"point_id":"PT_ACEH_BARAT_DAYA","kantah_id":"KANTAH_ACEH_BARAT_DAYA","kab_id":"aceh_barat_daya","nama":"Kantah Aceh Barat Daya","jenis":"KANTAH","status":"RENCANA","real_lon":null,"real_lat":null,"disp_lon":96.86951,"disp_lat":3.83404,"url":"","tower_on":0,"coord_status":"AUTO_DISPLAY_FROM_POLYGON_BBOX - isi real_lon/real_lat kantor asli belakangan jika sudah tersedia"},"geometry":{"type":"Point","coordinates":[96.86951,3.83404]}},{"type":"Feature","id":"PT_ACEH_BESAR","properties":{"point_id":"PT_ACEH_BESAR","kantah_id":"KANTAH_ACEH_BESAR","kab_id":"aceh_besar","nama":"Kantah Aceh Besar","jenis":"KANTAH","status":"BELUM_TARGET","real_lon":null,"real_lat":null,"disp_lon":95.40596,"disp_lat":5.42281,"url":"","tower_on":0,"coord_status":"AUTO_DISPLAY_FROM_POLYGON_BBOX - isi real_lon/real_lat kantor asli belakangan jika sudah tersedia"},"geometry":{"type":"Point","coordinates":[95.40596,5.42281]}},{"type":"Feature","id":"PT_ACEH_JAYA","properties":{"point_id":"PT_ACEH_JAYA","kantah_id":"KANTAH_ACEH_JAYA","kab_id":"aceh_jaya","nama":"Kantah Aceh Jaya","jenis":"KANTAH","status":"BELUM_TARGET","real_lon":null,"real_lat":null,"disp_lon":95.66231,"disp_lat":4.81199,"url":"","tower_on":0,"coord_status":"AUTO_DISPLAY_FROM_POLYGON_BBOX - isi real_lon/real_lat kantor asli belakangan jika sudah tersedia"},"geometry":{"type":"Point","coordinates":[95.66231,4.81199]}},{"type":"Feature","id":"PT_ACEH_SELATAN","properties":{"point_id":"PT_ACEH_SELATAN","kantah_id":"KANTAH_ACEH_SELATAN","kab_id":"aceh_selatan","nama":"Kantah Aceh Selatan","jenis":"KANTAH","status":"BELUM_TARGET","real_lon":null,"real_lat":null,"disp_lon":97.42566,"disp_lat":3.06818,"url":"","tower_on":0,"coord_status":"AUTO_DISPLAY_FROM_POLYGON_BBOX - isi real_lon/real_lat kantor asli belakangan jika sudah tersedia"},"geometry":{"type":"Point","coordinates":[97.42566,3.06818]}},{"type":"Feature","id":"PT_ACEH_SINGKIL","properties":{"point_id":"PT_ACEH_SINGKIL","kantah_id":"KANTAH_ACEH_SINGKIL","kab_id":"aceh_singkil","nama":"Kantah Aceh Singkil","jenis":"KANTAH","status":"AKTIF","real_lon":null,"real_lat":null,"disp_lon":97.63675,"disp_lat":2.27956,"url":"","tower_on":1,"coord_status":"AUTO_DISPLAY_FROM_POLYGON_BBOX - isi real_lon/real_lat kantor asli belakangan jika sudah tersedia"},"geometry":{"type":"Point","coordinates":[97.63675,2.27956]}},{"type":"Feature","id":"PT_ACEH_TAMIANG","properties":{"point_id":"PT_ACEH_TAMIANG","kantah_id":"KANTAH_ACEH_TAMIANG","kab_id":"aceh_tamiang","nama":"Kantah Aceh Tamiang","jenis":"KANTAH","status":"BELUM_TARGET","real_lon":null,"real_lat":null,"disp_lon":98.00781,"disp_lat":4.20598,"url":"","tower_on":0,"coord_status":"AUTO_DISPLAY_FROM_POLYGON_BBOX - isi real_lon/real_lat kantor asli belakangan jika sudah tersedia"},"geometry":{"type":"Point","coordinates":[98.00781,4.20598]}},{"type":"Feature","id":"PT_ACEH_TENGAH","properties":{"point_id":"PT_ACEH_TENGAH","kantah_id":"KANTAH_ACEH_TENGAH","kab_id":"aceh_tengah","nama":"Kantah Aceh Tengah","jenis":"KANTAH","status":"BELUM_TARGET","real_lon":null,"real_lat":null,"disp_lon":96.81284,"disp_lat":4.56481,"url":"","tower_on":0,"coord_status":"AUTO_DISPLAY_FROM_POLYGON_BBOX - isi real_lon/real_lat kantor asli belakangan jika sudah tersedia"},"geometry":{"type":"Point","coordinates":[96.81284,4.56481]}},{"type":"Feature","id":"PT_ACEH_TENGGARA","properties":{"point_id":"PT_ACEH_TENGGARA","kantah_id":"KANTAH_ACEH_TENGGARA","kab_id":"aceh_tenggara","nama":"Kantah Aceh Tenggara","jenis":"KANTAH","status":"BELUM_TARGET","real_lon":null,"real_lat":null,"disp_lon":97.61787,"disp_lat":3.33885,"url":"","tower_on":0,"coord_status":"AUTO_DISPLAY_FROM_POLYGON_BBOX - isi real_lon/real_lat kantor asli belakangan jika sudah tersedia"},"geometry":{"type":"Point","coordinates":[97.61787,3.33885]}},{"type":"Feature","id":"PT_ACEH_TIMUR","properties":{"point_id":"PT_ACEH_TIMUR","kantah_id":"KANTAH_ACEH_TIMUR","kab_id":"aceh_timur","nama":"Kantah Aceh Timur","jenis":"KANTAH","status":"BELUM_TARGET","real_lon":null,"real_lat":null,"disp_lon":97.63805,"disp_lat":4.70243,"url":"","tower_on":0,"coord_status":"AUTO_DISPLAY_FROM_POLYGON_BBOX - isi real_lon/real_lat kantor asli belakangan jika sudah tersedia"},"geometry":{"type":"Point","coordinates":[97.63805,4.70243]}},{"type":"Feature","id":"PT_ACEH_UTARA","properties":{"point_id":"PT_ACEH_UTARA","kantah_id":"KANTAH_ACEH_UTARA","kab_id":"aceh_utara","nama":"Kantah Aceh Utara","jenis":"KANTAH","status":"BELUM_TARGET","real_lon":null,"real_lat":null,"disp_lon":97.15149,"disp_lat":4.99991,"url":"","tower_on":0,"coord_status":"AUTO_DISPLAY_FROM_POLYGON_BBOX - isi real_lon/real_lat kantor asli belakangan jika sudah tersedia"},"geometry":{"type":"Point","coordinates":[97.15149,4.99991]}},{"type":"Feature","id":"PT_BENER_MERIAH","properties":{"point_id":"PT_BENER_MERIAH","kantah_id":"KANTAH_BENER_MERIAH","kab_id":"bener_meriah","nama":"Kantah Bener Meriah","jenis":"KANTAH","status":"BELUM_TARGET","real_lon":null,"real_lat":null,"disp_lon":96.95091,"disp_lat":4.77545,"url":"","tower_on":0,"coord_status":"AUTO_DISPLAY_FROM_POLYGON_BBOX - isi real_lon/real_lat kantor asli belakangan jika sudah tersedia"},"geometry":{"type":"Point","coordinates":[96.95091,4.77545]}},{"type":"Feature","id":"PT_BIREUEN","properties":{"point_id":"PT_BIREUEN","kantah_id":"KANTAH_BIREUEN","kab_id":"bireuen","nama":"Kantah Bireuen","jenis":"KANTAH","status":"BELUM_TARGET","real_lon":null,"real_lat":null,"disp_lon":96.62618,"disp_lat":5.08284,"url":"","tower_on":0,"coord_status":"AUTO_DISPLAY_FROM_POLYGON_BBOX - isi real_lon/real_lat kantor asli belakangan jika sudah tersedia"},"geometry":{"type":"Point","coordinates":[96.62618,5.08284]}},{"type":"Feature","id":"PT_GAYO_LUES","properties":{"point_id":"PT_GAYO_LUES","kantah_id":"KANTAH_GAYO_LUES","kab_id":"gayo_lues","nama":"Kantah Gayo Lues","jenis":"KANTAH","status":"BELUM_TARGET","real_lon":null,"real_lat":null,"disp_lon":97.319,"disp_lat":3.97771,"url":"","tower_on":0,"coord_status":"AUTO_DISPLAY_FROM_POLYGON_BBOX - isi real_lon/real_lat kantor asli belakangan jika sudah tersedia"},"geometry":{"type":"Point","coordinates":[97.319,3.97771]}},{"type":"Feature","id":"PT_NAGAN_RAYA","properties":{"point_id":"PT_NAGAN_RAYA","kantah_id":"KANTAH_NAGAN_RAYA","kab_id":"nagan_raya","nama":"Kantah Nagan Raya","jenis":"KANTAH","status":"BELUM_TARGET","real_lon":null,"real_lat":null,"disp_lon":96.49447,"disp_lat":4.18144,"url":"","tower_on":0,"coord_status":"AUTO_DISPLAY_FROM_POLYGON_BBOX - isi real_lon/real_lat kantor asli belakangan jika sudah tersedia"},"geometry":{"type":"Point","coordinates":[96.49447,4.18144]}},{"type":"Feature","id":"PT_PIDIE","properties":{"point_id":"PT_PIDIE","kantah_id":"KANTAH_PIDIE","kab_id":"pidie","nama":"Kantah Pidie","jenis":"KANTAH","status":"RENCANA","real_lon":null,"real_lat":null,"disp_lon":96.10133,"disp_lat":5.12231,"url":"","tower_on":0,"coord_status":"AUTO_DISPLAY_FROM_POLYGON_BBOX - isi real_lon/real_lat kantor asli belakangan jika sudah tersedia"},"geometry":{"type":"Point","coordinates":[96.10133,5.12231]}},{"type":"Feature","id":"PT_PIDIE_JAYA","properties":{"point_id":"PT_PIDIE_JAYA","kantah_id":"KANTAH_PIDIE_JAYA","kab_id":"pidie_jaya","nama":"Kantah Pidie Jaya","jenis":"KANTAH","status":"RENCANA","real_lon":null,"real_lat":null,"disp_lon":96.19254,"disp_lat":5.10339,"url":"","tower_on":0,"coord_status":"AUTO_DISPLAY_FROM_POLYGON_BBOX - isi real_lon/real_lat kantor asli belakangan jika sudah tersedia"},"geometry":{"type":"Point","coordinates":[96.19254,5.10339]}},{"type":"Feature","id":"PT_SIMEULUE","properties":{"point_id":"PT_SIMEULUE","kantah_id":"KANTAH_SIMEULUE","kab_id":"simeulue","nama":"Kantah Simeulue","jenis":"KANTAH","status":"BELUM_TARGET","real_lon":null,"real_lat":null,"disp_lon":96.03728,"disp_lat":2.53757,"url":"","tower_on":0,"coord_status":"AUTO_DISPLAY_FROM_POLYGON_BBOX - isi real_lon/real_lat kantor asli belakangan jika sudah tersedia"},"geometry":{"type":"Point","coordinates":[96.03728,2.53757]}},{"type":"Feature","id":"PT_BANDA_ACEH","properties":{"point_id":"PT_BANDA_ACEH","kantah_id":"KANTAH_BANDA_ACEH","kab_id":"banda_aceh","nama":"Kantah Banda Aceh","jenis":"KANTAH","status":"RENCANA","real_lon":null,"real_lat":null,"disp_lon":95.32502,"disp_lat":5.56359,"url":"","tower_on":0,"coord_status":"AUTO_DISPLAY_FROM_POLYGON_BBOX - isi real_lon/real_lat kantor asli belakangan jika sudah tersedia"},"geometry":{"type":"Point","coordinates":[95.32502,5.56359]}},{"type":"Feature","id":"PT_LANGSA","properties":{"point_id":"PT_LANGSA","kantah_id":"KANTAH_LANGSA","kab_id":"langsa","nama":"Kantah Langsa","jenis":"KANTAH","status":"BELUM_TARGET","real_lon":null,"real_lat":null,"disp_lon":97.97611,"disp_lat":4.48304,"url":"","tower_on":0,"coord_status":"AUTO_DISPLAY_FROM_POLYGON_BBOX - isi real_lon/real_lat kantor asli belakangan jika sudah tersedia"},"geometry":{"type":"Point","coordinates":[97.97611,4.48304]}},{"type":"Feature","id":"PT_LHOKSEUMAWE","properties":{"point_id":"PT_LHOKSEUMAWE","kantah_id":"KANTAH_LHOKSEUMAWE","kab_id":"lhokseumawe","nama":"Kantah Lhokseumawe","jenis":"KANTAH","status":"BELUM_TARGET","real_lon":null,"real_lat":null,"disp_lon":97.10251,"disp_lat":5.16103,"url":"","tower_on":0,"coord_status":"AUTO_DISPLAY_FROM_POLYGON_BBOX - isi real_lon/real_lat kantor asli belakangan jika sudah tersedia"},"geometry":{"type":"Point","coordinates":[97.10251,5.16103]}},{"type":"Feature","id":"PT_SABANG","properties":{"point_id":"PT_SABANG","kantah_id":"KANTAH_SABANG","kab_id":"sabang","nama":"Kantah Sabang","jenis":"KANTAH","status":"BELUM_TARGET","real_lon":null,"real_lat":null,"disp_lon":95.24385,"disp_lat":5.92427,"url":"","tower_on":0,"coord_status":"AUTO_DISPLAY_FROM_POLYGON_BBOX - isi real_lon/real_lat kantor asli belakangan jika sudah tersedia"},"geometry":{"type":"Point","coordinates":[95.24385,5.92427]}},{"type":"Feature","id":"PT_SUBULUSSALAM","properties":{"point_id":"PT_SUBULUSSALAM","kantah_id":"KANTAH_SUBULUSSALAM","kab_id":"subulussalam","nama":"Kantah Subulussalam","jenis":"KANTAH","status":"BELUM_TARGET","real_lon":null,"real_lat":null,"disp_lon":97.94172,"disp_lat":2.75417,"url":"","tower_on":0,"coord_status":"AUTO_DISPLAY_FROM_POLYGON_BBOX - isi real_lon/real_lat kantor asli belakangan jika sudah tersedia"},"geometry":{"type":"Point","coordinates":[97.94172,2.75417]}},{"type":"Feature","id":"PT_KANWIL_BPN_ACEH","properties":{"point_id":"PT_KANWIL_BPN_ACEH","kantah_id":"KANWIL_BPN_ACEH","kab_id":"banda_aceh","nama":"Kanwil BPN Aceh","jenis":"KANWIL","status":"AKTIF","real_lon":null,"real_lat":null,"disp_lon":95.38002,"disp_lat":5.59859,"url":"","tower_on":0,"coord_status":"DISPLAY_OFFSET_FROM_BANDA_ACEH - isi koordinat kantor asli belakangan"},"geometry":{"type":"Point","coordinates":[95.38002,5.59859]}}]}